{
    "links": {
        "self": "http://www.neowsapp.com/rest/v1/neo/3527853?api_key=iIulBulltgU6a56xZRHN4H3l9WmuAYTsLGpBGhQ2"
    },
    "id": "3527853",
    "neo_reference_id": "3527853",
    "name": "(2010 LF)",
    "designation": "2010 LF",
    "nasa_jpl_url": "http://ssd.jpl.nasa.gov/sbdb.cgi?sstr=3527853",
    "absolute_magnitude_h": 24.1,
    "estimated_diameter": {
        "kilometers": {
            "estimated_diameter_min": 0.040230458,
            "estimated_diameter_max": 0.0899580388
        },
        "meters": {
            "estimated_diameter_min": 40.2304579834,
            "estimated_diameter_max": 89.9580388169
        },
        "miles": {
            "estimated_diameter_min": 0.0249980399,
            "estimated_diameter_max": 0.0558973165
        },
        "feet": {
            "estimated_diameter_min": 131.9896957704,
            "estimated_diameter_max": 295.1379320721
        }
    },
    "is_potentially_hazardous_asteroid": false,
    "close_approach_data": [
        {
            "close_approach_date": "2010-06-04",
            "close_approach_date_full": "2010-Jun-04 04:05",
            "epoch_date_close_approach": 1275624300000,
            "relative_velocity": {
                "kilometers_per_second": "8.3252242962",
                "kilometers_per_hour": "29970.8074664969",
                "miles_per_hour": "18622.6942282797"
            },
            "miss_distance": {
                "astronomical": "0.0664923526",
                "lunar": "25.8655251614",
                "kilometers": "9947114.320248962",
                "miles": "6180850.2287691956"
            },
            "orbiting_body": "Earth"
        }
    ],
    "orbital_data": {
        "orbit_id": "13",
        "orbit_determination_date": "2017-04-06 08:57:24",
        "first_observation_date": "2010-06-02",
        "last_observation_date": "2010-06-10",
        "data_arc_in_days": 8,
        "observations_used": 50,
        "orbit_uncertainty": "8",
        "minimum_orbit_intersection": ".0648979",
        "jupiter_tisserand_invariant": "3.618",
        "epoch_osculation": "2455352.5",
        "eccentricity": ".4833031403247752",
        "semi_major_axis": "2.053045388836968",
        "inclination": "9.734569522018901",
        "ascending_node_longitude": "80.28374466082728",
        "orbital_period": "1074.474846743521",
        "perihelion_distance": "1.060802105182762",
        "perihelion_argument": "155.8948966430157",
        "aphelion_distance": "3.045288672491173",
        "perihelion_time": "2455336.748943687502",
        "mean_anomaly": "5.277350409537146",
        "mean_motion": ".3350473964942734",
        "equinox": "J2000",
        "orbit_class": {
            "orbit_class_type": "AMO",
            "orbit_class_description": "Near-Earth asteroid orbits similar to that of 1221 Amor",
            "orbit_class_range": "1.017 AU < q (perihelion) < 1.3 AU"
        }
    },
    "is_sentry_object": false
}